HAWK-7B                 
1 56193U 23054R   26068.68903567  .00007955  00000+0  31011-3 0  9998
2 56193  97.2859 316.7839 0003661  61.5878 298.5730 15.26206341161848
STARLINK-30263          
1 57642U 23122L   26068.44532009  .00000526  00000+0  29304-4 0  9997
2 57642  43.0011  93.5321 0001286 265.2703  94.8002 15.26738900142179
